OBJECT_NAME,OBJECT_ID,EPOCH,MEAN_MOTION,ECCENTRICITY,INCLINATION,RA_OF_ASC_NODE,ARG_OF_PERICENTER,MEAN_ANOMALY,EPHEMERIS_TYPE,CLASSIFICATION_TYPE,NORAD_CAT_ID,ELEMENT_SET_NO,REV_AT_EPOCH,BSTAR,MEAN_MOTION_DOT,MEAN_MOTION_DDOT
TIANMU-1 21,2023-208C,2026-07-13T12:19:18.083136,15.35532336,.0006541,97.4527,314.4158,210.4867,149.5997,0,U,58662,999,14160,.16825E-3,.573E-4,0
TIANMU-1 22,2023-208D,2026-07-13T11:22:00.581376,15.31411979,.0002607,97.4522,310.8303,226.3407,133.7618,0,U,58663,999,14135,.14547E-3,.4334E-4,0
TIANMU-1 15,2024-004A,2026-07-13T12:12:49.555296,15.26903405,.0005932,97.4664,20.6996,235.8398,124.2279,0,U,58700,999,13979,.1208E-3,.3118E-4,0
TIANMU-1 16,2024-004B,2026-07-13T11:57:49.320864,15.27006171,.0004378,97.4614,19.9067,253.8746,106.2011,0,U,58701,999,13979,.11849E-3,.3066E-4,0
TIANMU-1 17,2024-004C,2026-07-13T13:11:16.551168,15.27004656,.0003862,97.4639,20.4523,260.1968,99.8835,0,U,58702,999,13979,.12112E-3,.3135E-4,0
TIANMU-1 18,2024-004D,2026-07-13T12:36:42.623712,15.26919869,.0003628,97.4658,20.6908,232.8094,127.2814,0,U,58703,999,13979,.11466E-3,.2956E-4,0
INSAT-3DS,2024-033A,2026-07-13T10:25:45.698016,1.00271049,.0001029,0.0964,265.0616,225.8034,38.9584,0,U,58990,999,4733,0,-.159E-5,0
METEOR-M2 4,2024-039A,2026-07-13T11:47:30.506784,14.22432033,.0008249,98.7024,153.4607,92.9806,267.2316,0,U,59051,999,12300,.89677E-5,-.24E-6,0
GOES 19,2024-119A,2026-07-13T11:23:43.761120,1.00271911,.0000462,0.0034,112.1208,104.0753,170.8885,0,U,60133,999,722,0,-.252E-5,0
MTG-S1,2025-143A,2026-07-13T08:19:49.197216,1.00273104,.0003501,0.5853,344.6575,262.0105,169.0934,0,U,64723,999,368,0,-.1E-6,0
METOP-SGA1,2025-172A,2026-07-13T00:03:48.804480,14.19818960,.00071944,98.6631,253.1845,338.8709,21.2169,0,U,65159,999,4745,.2589644E-4,.12E-6,0
FENGYUN 3H,2025-219A,2026-07-13T11:10:49.256832,14.19924638,.0001193,98.6771,134.7248,63.3267,296.8032,0,U,65815,999,4111,.18203E-4,-.5E-7,0
