TIANMU-1 21             
1 58662U 23208C   26194.51340374  .00005730  00000+0  16825-3 0  9990
2 58662  97.4527 314.4158 0006541 210.4867 149.5997 15.35532336141605
TIANMU-1 22             
1 58663U 23208D   26194.47361784  .00004334  00000+0  14547-3 0  9992
2 58663  97.4522 310.8303 0002607 226.3407 133.7618 15.31411979141350
TIANMU-1 15             
1 58700U 24004A   26194.50890689  .00003118  00000+0  12080-3 0  9993
2 58700  97.4664  20.6996 0005932 235.8398 124.2279 15.26903405139798
TIANMU-1 16             
1 58701U 24004B   26194.49848751  .00003066  00000+0  11849-3 0  9999
2 58701  97.4614  19.9067 0004378 253.8746 106.2011 15.27006171139793
TIANMU-1 17             
1 58702U 24004C   26194.54949712  .00003135  00000+0  12112-3 0  9996
2 58702  97.4639  20.4523 0003862 260.1968  99.8835 15.27004656139796
TIANMU-1 18             
1 58703U 24004D   26194.52549333  .00002956  00000+0  11466-3 0  9991
2 58703  97.4658  20.6908 0003628 232.8094 127.2814 15.26919869139796
INSAT-3DS               
1 58990U 24033A   26194.43455669 -.00000159  00000+0  00000+0 0  9991
2 58990   0.0964 265.0616 0001029 225.8034  38.9584  1.00271049 47332
METEOR-M2 4             
1 59051U 24039A   26194.49132531 -.00000024  00000+0  89677-5 0  9996
2 59051  98.7024 153.4607 0008249  92.9806 267.2316 14.22432033123002
GOES 19                 
1 60133U 24119A   26194.47481205 -.00000252  00000+0  00000+0 0  9991
2 60133   0.0034 112.1208 0000462 104.0753 170.8885  1.00271911  7229
MTG-S1                  
1 64723U 25143A   26194.34709719 -.00000010  00000+0  00000+0 0  9999
2 64723   0.5853 344.6575 0003501 262.0105 169.0934  1.00273104  3681
METOP-SGA1              
1 65159U 25172A   26194.00264820  .00000012  00000+0  25896-4 0  9993
2 65159  98.6631 253.1845 0007194 338.8709  21.2169 14.19818960 47456
FENGYUN 3H              
1 65815U 25219A   26194.46584788 -.00000005  00000+0  18203-4 0  9999
2 65815  98.6771 134.7248 0001193  63.3267 296.8032 14.19924638 41119
